NORAD_CAT_ID,OBJECT_NAME,OBJECT_TYPE,EPOCH,MEAN_MOTION,ECCENTRICITY,INCLINATION,RA_OF_ASC_NODE,ARG_OF_PERICENTER,MEAN_ANOMALY,BSTAR,MEAN_MOTION_DOT,MEAN_MOTION_DDOT,TLE_LINE0,TLE_LINE1,TLE_LINE2,SEMIMAJOR_AXIS,PERIOD,APOGEE,PERIGEE,DECAYED
50177.0,STARLINK-3282,PAYLOAD,2022-02-24 22:00:00,15.47248686,0.0001651,53.2174,28.8619,46.739,175.7623,-0.013728,-0.00654081,0.0,0 STARLINK-3282,1 50177U 21125X   22055.91667824 -.00654081  00000-0 -13728-1 0  9996,2 50177  53.2174  28.8619 0001651  46.7390 175.7623 15.47248686  3678,6802.916,93.068,425.904,423.658,0.0
50177.0,STARLINK-3282,PAYLOAD,2022-02-25 06:00:00,15.46782423,0.000171,53.2174,27.2775,41.2248,238.7367,-0.013992,-0.00655778,0.0,0 STARLINK-3282,1 50177U 21125X   22056.25001157 -.00655778  00000-0 -13992-1 0  9992,2 50177  53.2174  27.2775 0001710  41.2248 238.7367 15.46782423 13624,6804.283,93.096,427.311,424.984,0.0
50177.0,STARLINK-3282,PAYLOAD,2022-02-25 14:00:01,15.46316786,0.0001315999999999,53.2174,25.691,54.034,282.8285,-0.01426,-0.00657411,0.0,0 STARLINK-3282,1 50177U 21125X   22056.58334491 -.00657411  00000-0 -14260-1 0  9993,2 50177  53.2174  25.6910 0001316  54.0340 282.8285 15.46316786  3672,6805.649,93.125,428.409,426.61800000000005,0.0
50177.0,STARLINK-3282,PAYLOAD,2022-02-25 22:00:00,15.45847835,0.0001475,53.2174,24.1059,43.4952,349.7083,-0.014379,-0.00652649,0.0,0 STARLINK-3282,1 50177U 21125X   22056.91667824 -.00652649  00000-0 -14379-1 0  9998,2 50177  53.2174  24.1059 0001475  43.4952 349.7083 15.45847835  3680,6807.025,93.153,429.894,427.886,0.0
50177.0,STARLINK-3282,PAYLOAD,2022-02-26 14:00:01,15.44916462,0.0001535,53.2174,20.9413,46.7472,97.4534,-0.014928,-0.00655902,0.0,0 STARLINK-3282,1 50177U 21125X   22057.58334491 -.00655902  00000-0 -14928-1 0  9998,2 50177  53.2174  20.9413 0001535  46.7472  97.4534 15.44916462 13825,6809.761,93.209,432.671,430.58,0.0
50177.0,STARLINK-3282,PAYLOAD,2022-02-26 22:00:00,15.44449098,0.0001824,53.2176,19.3598,39.9386,158.9203,-0.015111,-0.00653629,0.0,0 STARLINK-3282,1 50177U 21125X   22057.91667824 -.00653629  00000-0 -15111-1 0  9993,2 50177  53.2176  19.3598 0001824  39.9386 158.9203 15.44449098  3698,6811.134,93.237,434.242,431.757,0.0
50177.0,STARLINK-3282,PAYLOAD,2022-02-27 14:00:01,15.43517902,0.0001483,53.2175,16.2016,47.1364,259.3562,-0.015716,-0.00666044,0.0,0 STARLINK-3282,1 50177U 21125X   22058.58334491 -.00666044  00000-0 -15716-1 0  9994,2 50177  53.2175  16.2016 0001483  47.1364 259.3562 15.43517902  3688,6813.873000000001,93.293,436.749,434.728,0.0
50177.0,STARLINK-3282,PAYLOAD,2022-02-27 22:00:00,15.43049697,0.0001656,53.2177,14.6237,36.5396,322.9296,-0.015868,-0.00662195,0.0,0 STARLINK-3282,1 50177U 21125X   22058.91667824 -.00662195  00000-0 -15868-1 0  9991,2 50177  53.2177  14.6237 0001656  36.5396 322.9296 15.43049697 14039,6815.252,93.322,438.245,435.98800000000006,0.0
50177.0,STARLINK-3282,PAYLOAD,2022-02-28 14:00:01,15.42115876,0.0001576999999999,53.2174,11.4721,41.1165,62.6233,-0.01636,-0.00661576,0.0,0 STARLINK-3282,1 50177U 21125X   22059.58334491 -.00661576  00000-0 -16360-1 0  9996,2 50177  53.2174  11.4721 0001577  41.1165  62.6233 15.42115876  3687,6818.003000000002,93.378,440.943,438.793,0.0
50177.0,STARLINK-3282,PAYLOAD,2022-02-28 22:00:00,15.41648703,0.000178,53.2176,9.8976,39.612,115.4223,-0.016582,-0.00660238,0.0,0 STARLINK-3282,1 50177U 21125X   22059.91667824 -.00660238  00000-0 -16582-1 0  9992,2 50177  53.2176   9.8976 0001780  39.6120 115.4223 15.41648703  3686,6819.38,93.406,442.459,440.031,0.0
50177.0,STARLINK-3282,PAYLOAD,2022-03-01 06:00:00,15.41180743,0.0001822,53.2174,8.3261,41.3842,164.3832,-0.016782,-0.00657982,0.0,0 STARLINK-3282,1 50177U 21125X   22060.25001157 -.00657982  00000-0 -16782-1 0  9996,2 50177  53.2174   8.3261 0001822  41.3842 164.3832 15.41180743 14241,6820.76,93.435,443.86800000000005,441.383,0.0
50177.0,STARLINK-3282,PAYLOAD,2022-03-01 14:00:01,15.40718035,0.0001528,53.2175,6.7524,51.209,204.7309,-0.017227,-0.0066455,0.0,0 STARLINK-3282,1 50177U 21125X   22060.58334491 -.00664550  00000-0 -17227-1 0  9996,2 50177  53.2175   6.7524 0001528  51.2090 204.7309 15.40718035  3677,6822.126,93.463,445.033,442.948,0.0
50177.0,STARLINK-3282,PAYLOAD,2022-03-01 22:00:01,15.40250496,0.0001619,53.2176,5.1813,43.2128,262.4039,-0.017435,-0.00662364,0.0,0 STARLINK-3282,1 50177U 21125X   22060.91668981 -.00662364  00000-0 -17435-1 0  9999,2 50177  53.2176   5.1813 0001619  43.2128 262.4039 15.40250496  3680,6823.505999999999,93.491,446.476,444.267,0.0
50177.0,STARLINK-3282,PAYLOAD,2022-03-02 06:00:00,15.39782479,0.0001667,53.2174,3.6134,37.993,316.6107,-0.01766,-0.00660705,0.0,0 STARLINK-3282,1 50177U 21125X   22061.25001157 -.00660705  00000-0 -17660-1 0  9990,2 50177  53.2174   3.6134 0001667  37.9930 316.6107 15.39782479 14398,6824.889,93.52,447.892,445.616,0.0
50177.0,STARLINK-3282,PAYLOAD,2022-03-02 14:00:01,15.39316428,0.000143,53.2175,2.0429,44.0979,358.9978,-0.017961,-0.00661592,0.0,0 STARLINK-3282,1 50177U 21125X   22061.58334491 -.00661592  00000-0 -17961-1 0  9995,2 50177  53.2175   2.0429 0001430  44.0979 358.9978 15.39316428  3658,6826.266,93.548,449.108,447.155,0.0
50177.0,STARLINK-3282,PAYLOAD,2022-03-02 22:00:00,15.38850466,0.0001673,53.2174,0.4753,38.378,52.6478,-0.018261,-0.00662365,0.0,0 STARLINK-3282,1 50177U 21125X   22061.91667824 -.00662365  00000-0 -18261-1 0  9994,2 50177  53.2174   0.4753 0001673  38.3780  52.6478 15.38850466  3684,6827.644,93.576,450.652,448.367,0.0
50177.0,STARLINK-3282,PAYLOAD,2022-03-03 14:00:01,15.37915739,0.0001678,53.2174,357.3432,43.4295,141.7757,-0.018733,-0.00659197,0.0,0 STARLINK-3282,1 50177U 21125X   22062.58334491 -.00659197  00000-0 -18733-1 0  9992,2 50177  53.2174 357.3432 0001678  43.4295 141.7757 15.37915739 14603,6830.411,93.633,453.422,451.129,0.0
50177.0,STARLINK-3282,PAYLOAD,2022-03-03 22:00:00,15.37449499,0.0001818,53.2175,355.7793,40.8294,190.6241,-0.019041,-0.00659879,0.0,0 STARLINK-3282,1 50177U 21125X   22062.91667824 -.00659879  00000-0 -19041-1 0  9998,2 50177  53.2175 355.7793 0001818  40.8294 190.6241 15.37449499  3673,6831.791,93.662,454.898,452.414,0.0
50177.0,STARLINK-3282,PAYLOAD,2022-03-04 14:00:01,15.36516614,0.0001696,53.2176,352.6535,36.5284,285.8043,-0.019647,-0.0066048,0.0,0 STARLINK-3282,1 50177U 21125X   22063.58335648 -.00660480  00000-0 -19647-1 0  9990,2 50177  53.2176 352.6535 0001696  36.5284 285.8043 15.36516614 14750,6834.556,93.718,457.581,455.262,0.0
50177.0,STARLINK-3282,PAYLOAD,2022-03-04 22:00:00,15.36051649,0.0001693,53.2178,351.0932,35.6358,331.1985,-0.020028,-0.00663042,0.0,0 STARLINK-3282,1 50177U 21125X   22063.91667824 -.00663042  00000-0 -20028-1 0  9993,2 50177  53.2178 351.0932 0001693  35.6358 331.1985 15.36051649  3665,6835.936,93.747,458.958,456.643,0.0
50177.0,STARLINK-3282,PAYLOAD,2022-03-05 06:00:00,15.3558156,0.0001815,53.2174,349.5346,32.045,18.7957,-0.020134,-0.00656983,0.0,0 STARLINK-3282,1 50177U 21125X   22064.25001157 -.00656983  00000-0 -20134-1 0  9996,2 50177  53.2174 349.5346 0001815  32.0450  18.7957 15.35581560  3714,6837.331,93.776,460.437,457.955,0.0
50177.0,STARLINK-3282,PAYLOAD,2022-03-05 14:00:01,15.35115687,0.0001686999999999,53.2176,347.974,37.2616,57.0253,-0.020484,-0.00658345,0.0,0 STARLINK-3282,1 50177U 21125X   22064.58334491 -.00658345  00000-0 -20484-1 0  9994,2 50177  53.2176 347.9740 0001687  37.2616  57.0253 15.35115687  3644,6838.714,93.804,461.733,459.425,0.0
50177.0,STARLINK-3282,PAYLOAD,2022-03-05 16:00:00,15.35000705,0.0001827,53.2173,347.5841,39.4443,155.6159,-0.020654,-0.00661171,0.0,0 STARLINK-3282,1 50177U 21125X   22064.66667824 -.00661171  00000-0 -20654-1 0  9992,2 50177  53.2173 347.5841 0001827  39.4443 155.6159 15.35000705 14924,6839.055,93.811,462.17,459.671,0.0
50177.0,STARLINK-3282,PAYLOAD,2022-03-05 22:00:01,15.34650573,0.0001894,53.2177,346.4169,35.6871,101.5477,-0.020878,-0.00660911,0.0,0 STARLINK-3282,1 50177U 21125X   22064.91668981 -.00660911  00000-0 -20878-1 0  9994,2 50177  53.2177 346.4169 0001894  35.6871 101.5477 15.34650573  3683,6840.096,93.832,463.256,460.665,0.0
50177.0,STARLINK-3282,PAYLOAD,2022-03-06 14:00:01,15.33715675,0.0001712,53.2175,343.3041,43.1954,178.0638,-0.02138,-0.00657156,0.0,0 STARLINK-3282,1 50177U 21125X   22065.58334491 -.00657156  00000-0 -21380-1 0  9990,2 50177  53.2175 343.3041 0001712  43.1954 178.0638 15.33715675  3661,6842.875,93.89,465.911,463.568,0.0
50177.0,STARLINK-3282,PAYLOAD,2022-03-06 22:00:00,15.33250085,0.0001909,53.2176,341.7507,36.7899,225.6711,-0.021765,-0.00659049,0.0,0 STARLINK-3282,1 50177U 21125X   22065.91667824 -.00659049  00000-0 -21765-1 0  9996,2 50177  53.2176 341.7507 0001909  36.7899 225.6711 15.33250085 15118,6844.26,93.918,467.432,464.819,0.0
50177.0,STARLINK-3282,PAYLOAD,2022-03-07 12:00:00,15.32435021,0.000158,53.2176,339.0326,51.0121,192.2045,-0.022418,-0.00661321,0.0,0 STARLINK-3282,1 50177U 21125X   22066.50001157 -.00661321  00000-0 -22418-1 0  9995,2 50177  53.2176 339.0326 0001580  51.0121 192.2045 15.32435021  3705,6846.687,93.968,469.634,467.47,0.0
50177.0,STARLINK-3282,PAYLOAD,2022-03-07 22:00:00,15.31851704,0.000172,53.2177,337.0944,36.09,346.615,-0.022837,-0.00661422,0.0,0 STARLINK-3282,1 50177U 21125X   22066.91667824 -.00661422  00000-0 -22837-1 0  9996,2 50177  53.2177 337.0944 0001720  36.0900 346.6150 15.31851704  3648,6848.425,94.004,471.468,469.112,0.0
50177.0,STARLINK-3282,PAYLOAD,2022-03-08 06:00:02,15.31383433,0.0001832,53.2172,335.5452,32.1442,29.5846,-0.023037,-0.00657762,0.0,0 STARLINK-3282,1 50177U 21125X   22067.25002315 -.00657762  00000-0 -23037-1 0  9997,2 50177  53.2172 335.5452 0001832  32.1442  29.5846 15.31383433 15317,6849.821,94.033,472.941,470.431,0.0
50177.0,STARLINK-3282,PAYLOAD,2022-03-08 14:00:01,15.30916368,0.0001718,53.2174,333.9946,37.2955,62.7707,-0.023382,-0.00657895,0.0,0 STARLINK-3282,1 50177U 21125X   22067.58334491 -.00657895  00000-0 -23382-1 0  9996,2 50177  53.2174 333.9946 0001718  37.2955  62.7707 15.30916368  3665,6851.214,94.061,474.256,471.902,0.0
